{
  "type": "FeatureCollection",
  "features": [
    {
      "type": "Feature",
      "properties": {
        "norad_id": 35902,
        "name": "COSMOS 2251 DEB",
        "group": "cosmos-2251-debris",
        "lat": -18.28936535576168,
        "lon": -121.86784379914593,
        "alt_km": 737.5051292116113,
        "timestamp": "2025-12-07T18:50:17.111710+00:00",
        "meta_object_name": "COSMOS 2251 DEB",
        "meta_object_id": "1993-036AUR",
        "meta_epoch": "2025-12-01T03:04:00.207552",
        "meta_mean_motion": 14.26791124,
        "meta_eccentricity": 0.01016301,
        "meta_inclination": 73.9836,
        "meta_ra_of_asc_node": 255.6555,
        "meta_arg_of_pericenter": 12.6385,
        "meta_mean_anomaly": 347.7274,
        "meta_ephemeris_type": 0,
        "meta_classification_type": "U",
        "meta_norad_cat_id": 35902,
        "meta_element_set_no": 999,
        "meta_rev_at_epoch": 60964,
        "meta_bstar": 0.0014097892,
        "meta_mean_motion_dot": 3.584e-05,
        "meta_mean_motion_ddot": 0,
        "tle_line1": "1 35902U 93036AUR 25335.12778018  .00003584  00000+0  14098-2 0  9995",
        "tle_line2": "2 35902  73.9836 255.6555 0101630  12.6385 347.7274 14.26791124609642"
      },
      "geometry": {
        "type": "Point",
        "coordinates": [
          -121.86784379914593,
          -18.28936535576168
        ]
      }
    },
    {
      "type": "Feature",
      "properties": {
        "norad_id": 35905,
        "name": "COSMOS 2251 DEB",
        "group": "cosmos-2251-debris",
        "lat": 74.01435450776142,
        "lon": -47.34241716872485,
        "alt_km": 616.5490988101765,
        "timestamp": "2025-12-07T18:50:17.111720+00:00",
        "meta_object_name": "COSMOS 2251 DEB",
        "meta_object_id": "1993-036AUU",
        "meta_epoch": "2025-12-05T23:11:04.270560",
        "meta_mean_motion": 14.98876189,
        "meta_eccentricity": 0.0091036,
        "meta_inclination": 74.0321,
        "meta_ra_of_asc_node": 224.5617,
        "meta_arg_of_pericenter": 306.179,
        "meta_mean_anomaly": 53.1,
        "meta_ephemeris_type": 0,
        "meta_classification_type": "U",
        "meta_norad_cat_id": 35905,
        "meta_element_set_no": 999,
        "meta_rev_at_epoch": 88481,
        "meta_bstar": 0.00094619012,
        "meta_mean_motion_dot": 0.00012441,
        "meta_mean_motion_ddot": 0,
        "tle_line1": "1 35905U 93036AUU 25339.96602165  .00012441  00000+0  94619-3 0  9993",
        "tle_line2": "2 35905  74.0321 224.5617 0091036 306.1790  53.1000 14.98876189884812"
      },
      "geometry": {
        "type": "Point",
        "coordinates": [
          -47.34241716872485,
          74.01435450776142
        ]
      }
    },
    {
      "type": "Feature",
      "properties": {
        "norad_id": 35959,
        "name": "COSMOS 2251 DEB",
        "group": "cosmos-2251-debris",
        "lat": -58.9870780933701,
        "lon": -67.30753356414577,
        "alt_km": 788.9510315518237,
        "timestamp": "2025-12-07T18:50:17.111730+00:00",
        "meta_object_name": "COSMOS 2251 DEB",
        "meta_object_id": "1993-036AUZ",
        "meta_epoch": "2025-12-07T05:44:16.937088",
        "meta_mean_motion": 14.34129806,
        "meta_eccentricity": 0.00213524,
        "meta_inclination": 74.0321,
        "meta_ra_of_asc_node": 322.134,
        "meta_arg_of_pericenter": 44.3033,
        "meta_mean_anomaly": 315.9823,
        "meta_ephemeris_type": 0,
        "meta_classification_type": "U",
        "meta_norad_cat_id": 35959,
        "meta_element_set_no": 999,
        "meta_rev_at_epoch": 84849,
        "meta_bstar": 0.00022436475,
        "meta_mean_motion_dot": 6.04e-06,
        "meta_mean_motion_ddot": 0,
        "tle_line1": "1 35959U 93036AUZ 25341.23908492  .00000604  00000+0  22436-3 0  9993",
        "tle_line2": "2 35959  74.0321 322.1340 0021352  44.3033 315.9823 14.34129806848497"
      },
      "geometry": {
        "type": "Point",
        "coordinates": [
          -67.30753356414577,
          -58.9870780933701
        ]
      }
    },
    {
      "type": "Feature",
      "properties": {
        "norad_id": 35961,
        "name": "COSMOS 2251 DEB",
        "group": "cosmos-2251-debris",
        "lat": 18.121258351788622,
        "lon": -141.68862349282094,
        "alt_km": 960.5721999064899,
        "timestamp": "2025-12-07T18:50:17.111740+00:00",
        "meta_object_name": "COSMOS 2251 DEB",
        "meta_object_id": "1993-036AVB",
        "meta_epoch": "2025-11-29T09:08:47.173056",
        "meta_mean_motion": 14.05319505,
        "meta_eccentricity": 0.01924432,
        "meta_inclination": 73.9254,
        "meta_ra_of_asc_node": 227.671,
        "meta_arg_of_pericenter": 163.9834,
        "meta_mean_anomaly": 196.7506,
        "meta_ephemeris_type": 0,
        "meta_classification_type": "U",
        "meta_norad_cat_id": 35961,
        "meta_element_set_no": 999,
        "meta_rev_at_epoch": 62494,
        "meta_bstar": 0.00062484461,
        "meta_mean_motion_dot": 1.171e-05,
        "meta_mean_motion_ddot": 0,
        "tle_line1": "1 35961U 93036AVB 25333.38110154  .00001171  00000+0  62484-3 0  9990",
        "tle_line2": "2 35961  73.9254 227.6710 0192443 163.9834 196.7506 14.05319505624940"
      },
      "geometry": {
        "type": "Point",
        "coordinates": [
          -141.68862349282094,
          18.121258351788622
        ]
      }
    },
    {
      "type": "Feature",
      "properties": {
        "norad_id": 35979,
        "name": "COSMOS 2251 DEB",
        "group": "cosmos-2251-debris",
        "lat": 59.07965173815366,
        "lon": 39.474755123148995,
        "alt_km": 644.1715292843937,
        "timestamp": "2025-12-07T18:50:17.111749+00:00",
        "meta_object_name": "COSMOS 2251 DEB",
        "meta_object_id": "1993-036AVV",
        "meta_epoch": "2025-12-07T00:28:15.848832",
        "meta_mean_motion": 14.74528809,
        "meta_eccentricity": 0.00587537,
        "meta_inclination": 74.0106,
        "meta_ra_of_asc_node": 249.5726,
        "meta_arg_of_pericenter": 23.061,
        "meta_mean_anomaly": 352.2989,
        "meta_ephemeris_type": 0,
        "meta_classification_type": "U",
        "meta_norad_cat_id": 35979,
        "meta_element_set_no": 999,
        "meta_rev_at_epoch": 88549,
        "meta_bstar": 0.0016160682,
        "meta_mean_motion_dot": 0.00011041,
        "meta_mean_motion_ddot": 0,
        "tle_line1": "1 35979U 93036AVV 25341.01962788  .00011041  00000+0  16161-2 0  9993",
        "tle_line2": "2 35979  74.0106 249.5726 0058753  23.0610 352.2989 14.74528809885498"
      },
      "geometry": {
        "type": "Point",
        "coordinates": [
          39.474755123148995,
          59.07965173815366
        ]
      }
    },
    {
      "type": "Feature",
      "properties": {
        "norad_id": 35980,
        "name": "COSMOS 2251 DEB",
        "group": "cosmos-2251-debris",
        "lat": -73.74731685482271,
        "lon": 34.12930950150505,
        "alt_km": 664.8333184535713,
        "timestamp": "2025-12-07T18:50:17.111759+00:00",
        "meta_object_name": "COSMOS 2251 DEB",
        "meta_object_id": "1993-036AVW",
        "meta_epoch": "2025-12-02T19:08:08.015136",
        "meta_mean_motion": 14.59062146,
        "meta_eccentricity": 0.00537712,
        "meta_inclination": 73.91,
        "meta_ra_of_asc_node": 141.7735,
        "meta_arg_of_pericenter": 277.5645,
        "meta_mean_anomaly": 81.9413,
        "meta_ephemeris_type": 0,
        "meta_classification_type": "U",
        "meta_norad_cat_id": 35980,
        "meta_element_set_no": 999,
        "meta_rev_at_epoch": 61341,
        "meta_bstar": 0.002036555,
        "meta_mean_motion_dot": 9.752e-05,
        "meta_mean_motion_ddot": 0,
        "tle_line1": "1 35980U 93036AVW 25336.79731499  .00009752  00000+0  20366-2 0  9995",
        "tle_line2": "2 35980  73.9100 141.7735 0053771 277.5645  81.9413 14.59062146613413"
      },
      "geometry": {
        "type": "Point",
        "coordinates": [
          34.12930950150505,
          -73.74731685482271
        ]
      }
    },
    {
      "type": "Feature",
      "properties": {
        "norad_id": 35982,
        "name": "COSMOS 2251 DEB",
        "group": "cosmos-2251-debris",
        "lat": 46.82875897422914,
        "lon": 158.676458794427,
        "alt_km": 661.5256289134768,
        "timestamp": "2025-12-07T18:50:17.111769+00:00",
        "meta_object_name": "COSMOS 2251 DEB",
        "meta_object_id": "1993-036AVY",
        "meta_epoch": "2025-12-06T11:03:40.709376",
        "meta_mean_motion": 14.62699476,
        "meta_eccentricity": 0.00640389,
        "meta_inclination": 74.0587,
        "meta_ra_of_asc_node": 358.9484,
        "meta_arg_of_pericenter": 67.194,
        "meta_mean_anomaly": 293.5974,
        "meta_ephemeris_type": 0,
        "meta_classification_type": "U",
        "meta_norad_cat_id": 35982,
        "meta_element_set_no": 999,
        "meta_rev_at_epoch": 86074,
        "meta_bstar": 0.00093867171,
        "meta_mean_motion_dot": 4.895e-05,
        "meta_mean_motion_ddot": 0,
        "tle_line1": "1 35982U 93036AVY 25340.46088784  .00004895  00000+0  93867-3 0  9998",
        "tle_line2": "2 35982  74.0587 358.9484 0064038  67.1940 293.5974 14.62699476860747"
      },
      "geometry": {
        "type": "Point",
        "coordinates": [
          158.676458794427,
          46.82875897422914
        ]
      }
    }
  ]
}